city,street,state,zip,name,lon,lat
HAZEL CREST,17800 KEDZIE AVE,IL,60429,ADVOCATE SOUTH SUBURBAN HOSPITAL,-87.696602,41.5663888
OAK LAWN,4440 W 95TH ST,IL,60453,ADVOCATE CHRIST MEDICAL CENTER,-87.73261819999999,41.721808
PARK RIDGE,1775 W DEMPSTER ST,IL,60068,ADVOCATE LUTHERAN GENERAL HOSPITAL,-87.847611,42.0384783
MOUNT PROSPECT,1754 W GOLF RD,IL,60056,AHMG RESPIRATORY CENTER MOUNT PROSPECT,-87.96217449999999,42.0494798
TINLEY PARK,17495 LA GRANGE RD,IL,60487,DUPAGE MEDICAL GROUP - TINLEY PARK,-87.8507274,41.5730338
ALSIP,12003 S PULASKI RD,IL,60803,JEWEL-OSCO PHARMACY STORE #3098,-87.7178364,41.6741149
ARLINGTON HEIGHTS,1860 S ARLINGTON HEIGHTS RD,IL,60005,JEWEL-OSCO PHARMACY STORE #3461,-87.983853,42.0523392
COUNTRYSIDE,5545 S BRAINARD AVE,IL,60525,JEWEL-OSCO PHARMACY STORE #754,-87.8778358,41.7897647
DES PLAINES,1480 LEE ST,IL,60018,JEWEL-OSCO PHARMACY STORE #3425,-87.89452220000001,42.0266153
ELK GROVE VILLAGE,22 BIESTERFIELD RD,IL,60007,JEWEL-OSCO PHARMACY STORE #3220,-88.00521169999999,42.0036918
GLENVIEW,1340 PATRIOT BLVD,IL,60026,JEWEL-OSCO PHARMACY STORE #1,-87.8195113,42.0787105
HICKORY HILLS,9534 S ROBERTS RD,IL,60465,JEWEL-OSCO PHARMACY STORE #4029,-87.81846569999999,41.7173173
HOFFMAN ESTATES,1489 PALATINE RD,IL,60067,JEWEL-OSCO PHARMACY STORE #3486,-88.0793295,42.1098425
HOMEWOOD,17705 HALSTED ST,IL,60430,JEWEL-OSCO PHARMACY STORE #3188,-87.6338576,41.567842
LEMONT,1202 STATE ST,IL,60439,JEWEL-OSCO PHARMACY STORE #3182,-88.0016001,41.65540730000001
MELROSE PARK,806 W NORTH AVE,IL,60160,"
JEWEL-OSCO PHARMACY STORE #3290",-87.8436869,41.907778
MERRIONETTE PARK,3243 W 115TH ST,IL,60803,JEWEL-OSCO PHARMACY STORE #2504,-87.7011536,41.68314669999999
NILES,8730 W DEMPSTER ST,IL,60714,JEWEL-OSCO PHARMACY STORE #3429,-87.844183,42.040851
OAK LAWN,8801 S RIDGELAND AVE,IL,60453,JEWEL-OSCO PHARMACY STORE #86,-87.7802962,41.7317346
ORLAND PARK,9352 W 159TH ST,IL,60462,JEWEL-OSCO PHARMACY STORE #3051,-87.847532,41.60344
PALATINE,423 E DUNDEE RD,IL,60067,"
JEWEL-OSCO PHARMACY STORE #3474",-88.03268949999999,42.1378741
SCHAUMBURG,1151 S ROSELLE RD,IL,60193,JEWEL-OSCO PHARMACY STORE #4308,-88.0780147,42.0063103
WESTCHESTER,2128 S MANNHEIM RD,IL,60154,JEWEL-OSCO PHARMACY STORE #4228,-87.8821304,41.8497757
WILMETTE,411 GREEN BAY RD,IL,60091,JEWEL-OSCO PHARMACY STORE #3456,-87.7062863,42.0724759
MAYWOOD,2160 S 1ST AVE,IL,60153,LOYOLA UNIVERSITY MEDICAL CENTER,-87.8350335,41.8603604
BELLWOOD,456 25TH AVE,IL,60104,OAK STREET HEALTH BELLWOOD,-87.86463309999999,41.8842918
BERWYN,7000 W CERMAK RD,IL,60402,OAK STREET HEALTH BERWYN,-87.79870799999999,41.8507577
BLUE ISLAND,3046 W 127TH ST,IL,60406,OAK STREET HEALTH BLUE ISLAND,-87.6955904,41.66281790000001
LA GRANGE,110 W CALENDAR AVE,IL,60525,PILLARS COMMUNITY HEALTH,-87.87135699999999,41.8144
CICERO,1845 S LARAMIE AVE,IL,60804,PRISM HEALTH LAB CICERO,-87.753828,41.854991
SCHAUMBURG,825 E SCHAUMBURG RD,IL,60194,PRISM HEALTH LAB SCHAUMBURG,-88.0594191,42.0270457
ARLINGTON HEIGHTS,1000 E NORTHWEST HWY,IL,60004,WALGREENS PHARMACY STORE #9246,-87.9713034,42.0796309
ARLINGTON HEIGHTS,235 E PALATINE RD,IL,60004,WALGREENS PHARMACY STORE #39,-87.97987429999999,42.1078973
BERWYN,6800 OGDEN AVE,IL,60402,WALGREENS PHARMACY STORE #5076,-87.79347109999999,41.8266158
BROADVIEW,8000 BROADVIEW VILLAGE SQ,IL,60155,WALGREENS PHARMACY STORE #1449,-87.8501411,41.8498816
CALUMET CITY,522 TORRENCE AVE,IL,60409,WALGREENS PHARMACY STORE #6564,-87.559438599999993,41.6214287
CICERO,5840 W 35TH ST,IL,60804,WALGREENS PHARMACY STORE #2785,-87.76997109999999,41.8292483
CICERO,4800 W CERMAK RD,IL,60804,WALGREENS PHARMACY STORE #1249,-87.7445743,41.8515925
CRESTWOOD,13501 CICERO AVE,IL,60418,WALGREENS PHARMACY STORE #4947,-87.73719150000001,41.6468625
ELGIN,815 SUMMIT ST,IL,60120,WALGREENS PHARMACY STORE #2986,-88.2595783,42.0459356
ELK GROVE VILLAGE,930 ELK GROVE TOWN CTR,IL,60007,WALGREENS PHARMACY STORE #4438,-88.0061633,42.0031052
EVERGREEN PARK,8700 S KEDZIE AVE,IL,60805,WALGREENS PHARMACY STORE #9141,-87.7028631,41.7345823
EVERGREEN PARK,3959 W 95TH ST,IL,60805,WALGREENS PHARMACY STORE #15635,-87.72072759999999,41.7202891
FRANKLIN PARK,9595 GRAND AVE,IL,60131,WALGREENS PHARMACY STORE #6462,-87.8642591,41.9290713
GLENVIEW,1403 WAUKEGAN RD,IL,60025,WALGREENS PHARMACY STORE #5683,-87.797209,42.0806224
HANOVER PARK,7350 BARRINGTON RD,IL,60133,WALGREENS PHARMACY STORE #3729,-88.1455316,42.0051734
HICKORY HILLS,7945 W 95TH ST,IL,60457,WALGREENS PHARMACY STORE #5139,-87.8172105,41.7179341
HICKORY HILLS,8800 W 95TH ST,IL,60457,WALGREENS PHARMACY STORE #5684,-87.8378625,41.71871489999999
HOFFMAN ESTATES,2560 W GOLF RD,IL,60169,WALGREENS PHARMACY STORE #3433,-88.1427872,42.0473587
HOFFMAN ESTATES,1000 N ROSELLE RD,IL,60169,WALGREENS PHARMACY STORE #6760,-88.0803815,42.0460261
LA GRANGE,2 N LA GRANGE RD,IL,60525,WALGREENS PHARMACY STORE #5670,-87.8700891,41.8167236
LA GRANGE HIGHLANDS,6600 WILLOW SPRINGS RD,IL,60525,WALGREENS PHARMACY STORE #4874,-87.8880348,41.7702967
LANSING,18133 TORRENCE AVE,IL,60438,WALGREENS PHARMACY STORE #5127,-87.5583573,41.5654423
LYONS,4101 1ST AVE,IL,60534,WALGREENS PHARMACY STORE #1450,-87.8332551,41.8155712
MELROSE PARK,1445 W NORTH AVE,IL,60160,WALGREENS PHARMACY STORE #9600,-87.8520678,41.9087298
MIDLOTHIAN,4800 148TH ST,IL,60445,WALGREENS PHARMACY STORE #11109,-87.73796089999999,41.6236661
MOUNT PROSPECT,1028 S ELMHURST RD,IL,60056,WALGREENS PHARMACY STORE #209,-87.9424413,42.04627259999999
NILES,9000 N GREENWOOD AVE,IL,60714,WALGREENS PHARMACY STORE #2721,-87.84139189999999,42.04411349999999
NORRIDGE,4820 N CUMBERLAND AVE,IL,60706,WALGREENS PHARMACY STORE #5962,-87.8370934,41.9675976
NORTHLAKE,6 E NORTH AVE,IL,60164,WALGREENS PHARMACY STORE #3995,-87.9024475,41.907765499999996
OLYMPIA FIELDS,3200 VOLLMER RD,IL,60461,WALGREENS PHARMACY STORE #7411,-87.6945509,41.5272097
ORLAND PARK,7960 W 159TH ST,IL,60462,WALGREENS PHARMACY STORE #4148,-87.8129835,41.6026712
PARK RIDGE,800 DEVON AVE,IL,60068,WALGREENS PHARMACY STORE #15907,-87.8336288,41.9970211
RIVER FOREST,7251 LAKE ST,IL,60305,WALGREENS PHARMACY STORE #3076,-87.80669739999999,41.8881604
SOUTH CHICAGO HEIGHTS,3120 CHICAGO RD,IL,60411,WALGREENS PHARMACY STORE #5086,-87.6383026,41.4817264
SOUTH HOLLAND,390 E 162ND ST,IL,60473,WALGREENS PHARMACY STORE #9924,-87.6079152,41.6012504
ARLINGTON HEIGHTS,1120 N ARLINGTON HEIGHTS RD,IL,60004,ACCESS NORTHWEST FAMILY HEALTH CENTER,-87.9817872,42.0964237
BLUE ISLAND,13000 MAPLE AVE,IL,60406,ACCESS BLUE ISLAND FAMILY HEALTH CENTER,-87.68527089999999,41.65685
CHICAGO HEIGHTS,152 W LINCOLN HWY,IL,60411,ACCESS - CHICAGO HEIGHTS,-87.6471297,41.5057625
CICERO,3040 S CICERO AVE FL 2,IL,60804,ACCESS AT HAWTHORNE FAMILY HEALTH CENTER,-87.7443814,41.8375841
DES PLAINES,1 N BROADWAY ST,IL,60016,WALGREENS PHARMACY STORE #15262,-87.9090006,42.0517386
MELROSE PARK,8321 W NORTH AVE,IL,60160,ACCESS MELROSE PARK FAMILY HEALTH CENTER,-87.83359449999999,41.9069637
ARLINGTON HEIGHTS,3250 N ARLINGTON HEIGHTS RD,IL,60004,ARLINGTON HEIGHTS HEALTH CENTER,-87.98423559999999,42.1342995
CICERO,2423 S AUSTIN BLVD,IL,60804,MORTON EAST HEALTH CENTER,-87.77079859999999,41.8465895
FORD HEIGHTS,1645 COTTAGE GROVE AVE,IL,60411,COTTAGE GROVE HEALTH CENTER,-87.5964997,41.5042522
ROBBINS,13450 S KEDZIE AVE,IL,60472,CCHHS - ROBBINS,-87.69980170000001,41.6486787
BERWYN,6447 W CERMAK RD,IL,60402,ALIVIO MEDICAL CENTER,-87.7857601,41.8504675
WESTCHESTER,2434 WOLF RD,IL,60154,AMITA HEALTH MEDICAL GROUP WESTCHESTER,-87.90262560000001,41.8437124
CHICAGO HEIGHTS,1536 VINCENNES AVE,IL,60411,AUNT MARTHA'S HEALTH & WELLNESS CHICAGO HEIGHTS VINCENNES,-87.6385725,41.5030113
SOUTH HOLLAND,52 W 162ND ST,IL,60473,AUNT MARTHA'S HEALTH & WELLNESS SOUTH HOLLAND,-87.6233352,41.6013607
BELLWOOD,4009 WARREN AVE,IL,60104,BROADWAY MEDICAL CLINIC BELLWOOD,-87.8822847,41.8790267
PALATINE,770 E DUNDEE RD,IL,60074,EPIC URGENT CARE PC,-88.0240802,42.1395866
HARVEY,31 W 155TH ST STE E,IL,60426,FAMILY CHRISTIAN HEALTH CENTER HARVEY,-87.6579589,41.6084339
STREAMWOOD,135 E IRVING PARK RD,IL,60107,STREAMWOOD COMMUNITY HEALTH CENTER,-88.17924420000001,42.0124428
WHEELING,300 MCHENRY RD,IL,60090,CREEKSIDE HEALTH CENTER,-87.9360489,42.1434764
CHICAGO HEIGHTS,450 W LINCOLN HWY STE P,IL,60411,GENOA HEALTHCARE PHARMACY CHICAGO HEIGHTS,-87.6623159,41.5057209
ELK GROVE VILLAGE,1001 ROHLWING RD STE P,IL,60007,GENOA HEALTHCARE LLC ELK GROVE VILLAGE,-88.0307296,41.9966133
DES PLAINES,1400 E GOLF ROAD,IL,60016,HOLY FAMILY PLAZA PHARMACY,-87.89225499999999,42.0544096
BERWYN,6326 CERMAK RD,IL,60402,JENCARE SENIOR MEDICAL CENTERS BERWYN,-87.7825711,41.8510824
DOLTON,600 E SIBLEY BLVD,IL,60419,JENCARE SENIOR MEDICAL CENTERS DOLTON,-87.60717439999999,41.6233026
GLENWOOD,19310 S HALSTED ST,IL,60425,JENCARE NMC GLENWOOD LLC,-87.636645,41.5384063
OAK LAWN,6101 W 95TH ST,IL,60453,JENCARE SENIOR MEDICAL CENTERS OAK LAWN,-87.7729783,41.7193926
MELROSE PARK,701 W NORTH AVE,IL,60160,GOTTLIEB MEMORIAL HOSPITAL,-87.8418095,41.910205
ARLINGTON HEIGHTS,802 E NORTHWEST HWY,IL,60004,MARIANO'S PHARMACY STORE #501,-87.9729871,42.0804331
EVERGREEN PARK,2559 W 95TH ST,IL,60805,MARIANO'S PHARMACY STORE #530,-87.6878691,41.71944310000001
HARWOOD HEIGHTS,7401 W LAWRENCE AVE,IL,60706,MARIANO'S PHARMACY STORE #510,-87.8127531,41.9653573
HOFFMAN ESTATES,2575 W GOLF RD,IL,60169,MARIANO'S PHARMACY STORE #506,-88.1430159,42.0451202
NORTHBROOK,2323 CAPITAL DR,IL,60062,MARIANO'S PHARMACY STORE #532,-87.87255669999999,42.1110661
NORTHBROOK,784 SKOKIE BLVD,IL,60062,MARIANO'S PHARMACY STORE #533,-87.79423129999999,42.13966500000001
NORTHFIELD,1822 WILLOW RD,IL,60093,MARIANO'S PHARMACY STORE #524,-87.7712598,42.1000321
OAK LAWN,11000 CICERO AVE,IL,60453,MARIANO'S PHARMACY STORE #517,-87.7417303,41.6932669
ORLAND PARK,9504 142ND ST,IL,60462,MARIANO'S PHARMACY STORE #535,-87.85205959999999,41.6337156
PALATINE,545 N HICKS RD,IL,60067,MARIANO'S PHARMACY STORE #505,-88.031876,42.1199166
PARK RIDGE,1900 S CUMBERLAND AVE,IL,60068,MARIANO'S PHARMACY STORE #525,-87.83793779999999,41.9871968
WESTCHESTER,3020 WOLF RD,IL,60154,MARIANO'S PHARMACY STORE #528,-87.89961129999999,41.8355069
CHICAGO HEIGHTS,1401 WESTERN AVE,IL,60411,OAK STREET HEALTH CHICAGO HEIGHTS,-87.6737548,41.5055607
BERWYN,6201 ROOSEVELT RD,IL,60402,PCC SOUTH FAMILY HEALTH CENTER,-87.7792925,41.8651005
MELROSE PARK,1111 SUPERIOR ST,IL,60160,FRESENIUS MEDICAL CARE MELROSE PARK,-87.84783879999999,41.8929604
MELROSE PARK,1111 SUPERIOR ST STE 101,IL,60160,PCC MELROSE PARK FAMILY HEALTH CENTER,-87.8477331,41.892779
ALSIP,4800 W 129TH ST,IL,60803,PHYSICIANS IMMEDIATE CARE ALSIP,-87.7390763,41.6579954
ELK GROVE VILLAGE,1420 BUSSE RD,IL,60007,PHYSICIANS IMMEDIATE CARE ELK GROVE VILLAGE,-87.96029539999999,42.0051868
HANOVER PARK,7425 BARRINGTON RD,IL,60133,PHYSICIANS IMMEDIATE CARE HANOVER PARK,-88.1441404,42.006447
NILES,8630 W GOLF RD,IL,60714,PHYSICIANS IMMEDIATE-NILES,-87.8421147,42.05500800000001
NORRIDGE,4900 N CUMBERLAND AVE,IL,60706,PHYSICIANS IMMEDIATE CARE NORRIDGE,-87.8371318,41.9687983
ORLAND PARK,9570 W 159TH ST STE A,IL,60462,PHYSICIANS IMMEDIATE CARE ORLAND PARK,-87.8519828,41.6020011
PARK RIDGE,123 S NORTHWEST HWY,IL,60068,PHYSICIANS IMMEDIATE CARE PARK RIDGE,-87.8269212,42.0098535
NORTH RIVERSIDE,7222 W CERMAK RD,IL,60546,RUSH OAK PARK PG NORTH RIVERSIDE,-87.80532459999999,41.8507584
CHICAGO HEIGHTS,30 E 15TH ST STE 202,IL,60411,SPECIALTY PHYSICIANS OF ILLINOIS,-87.6391507,41.5038429
OLYMPIA FIELDS,3700 W 203RD ST,IL,60461,SPECIALTY PHYSICIAN OF ILLINOIS,-87.7092179,41.5223118
CHICAGO RIDGE,9830 RIDGELAND AVE STE 9A,IL,60415,STAR-CARE FAMILY WELLNESS CHICAGO RIDGE,-87.7804062,41.7129685
HAZEL CREST,18301 PULASKI AVE,IL,60429,WALGREENS PHARMACY STORE #3928,-87.7128743,41.5565985
PALATINE,375 E DUNDEE RD,IL,60074,WALGREENS PHARMACY STORE #3940,-88.0345693,42.1387092
SAUK VILLAGE,2601 E SAUK TRL,IL,60411,WALGREENS PHARMACY STORE #5128,-87.55866619999999,41.4917834
STREAMWOOD,13 E IRVING PARK RD,IL,60107,WALGREEN PHARMACY STORE #3927,-88.1818637,42.0126734
PARK RIDGE,2601 W DEMPSTER ST,IL,60068,MAINE EAST SCHOOL BASED HEALTH,-87.8443372,42.0398381
BLUE ISLAND,12757 S WESTERN AVE,IL,60406,CCH - BLUE ISLAND,-87.6796095,41.6609793
RIVERSIDE,1800 S HARLEM AVE,IL,60130,CCH NORTH RIVERSIDE HEALTH CENTER,-87.8053646,41.8556222
HAZEL CREST,17850 KEDZIE AVE STE 1150,IL,60429,AUNT MARTHA'S HAZEL CREST,-87.6968588,41.5654823
HARVEY,15420 DIXIE HWY,IL,60426,AUNT MARTHA'S HARVEY,-87.6712895,41.6087818
MELROSE PARK,153 N AVE,IL,60160,BROADWAY - MELROSE PARK,-87.8964121,41.9067963
SOUTH HOLLAND,901 SIBLEY BLVD,IL,60473,CHRISTIAN COMMUNITY HEALTH CENTER - SOUTH HOLLAND,-87.5951477,41.622146
DOLTON,713 E 142ND ST,IL,60419,FAMILY CHRISTIAN HEALTH CENTER - DOLTON,-87.6020899,41.6369286
OAK PARK,1010 LAKE ST,IL,60301,LAKE STREET PHYSICIANS,-87.8010005,41.8889749
BERWYN,3249 S OAK PARK AVE,IL,60402,MACNEAL,-87.79161769999999,41.8321601
DES PLAINES,10 E GOLF RD,IL,60016,MARIANO'S PHARMACY STORE #541,-87.9201503,42.0505878
GLENVIEW,25 WAUKEGAN RD,IL,60025,MARIANO'S PHARMACY STORE #518,-87.79761359999999,42.0560333
MELROSE PARK,10400 W NORTH AVE,IL,60160,NAVISTAR - MELROSE PARK,-87.88013649999999,41.9106898
LEMONT,15900 W 127TH ST STE 221A,IL,60439,PLUMBERS WELLNESS CENTER,-88.0074887,41.6549641
LOMBARD,1919 S HIGHLAND AVE,"NA",60148,POSITIVE HEALTH SERVICES - LOMBARD,-88.0100886,41.8480991
MATTESON,20939 SOUTH CICERO AVE,IL,60443,SPECIALTY PHYSICIANS OF ILLINOIS - MATTESON,-87.7317444,41.50881589999999
TINLEY PARK,16650 HARLEM AVE,IL,60477,SPECIALTY PHYSICIANS OF ILLINOIS - TINLEY PARK,-87.79454679999999,41.5884452
NILES,8321 W GOLF RD,IL,60714,ASIAN HUMAN SERVICES FAMILY HEALTH CENTER NILES,-87.8339745,42.05361389999999
BERWYN,6447 W CERMAK RD,IL,60402,ALIVIO MEDICAL CENTER,-87.7857601,41.8504675
CICERO,5741 W CERMAK RD,IL,60804,CERMAK IMMEDIATE CARE,-87.7683885,41.850604
DES PLAINES,555 WILSON LN,IL,60016,CHICAGO BEHAVIORAL HOSPITAL,-87.87913960000002,42.0428048
LEMONT,135 ST & NEW AVE,IL,60439,CITGO LEMONT REFINERY,-73.9408854,40.81411960000001
FRANKLIN PARK,10137 GRAND AVE,IL,60131,CONCENTRA FRANKLIN PARK,-87.8794106,41.9297532
MELROSE PARK,8400 W NORTH AVE,IL,60160,COSTCO PHARMACY STORE #1085,-87.8359419,41.9098682
NORTH RIVERSIDE,2500 S HARLEM AVE,IL,60546,COSTCO PHARMACY STORE #1153,-87.8052257,41.84476739999999
GLENVIEW,2900 PATRIOT BLVD,IL,60062,COSTCO PHARMACY STORE #348,-87.82154829999999,42.1092793
NILES,7311 N MELVINA AVE,IL,60714,COSTCO PHARMACY STORE #383,-87.780945,42.0150489
SCHAUMBURG,1375 N MEACHAM RD,IL,60173,COSTCO PHARMACY STORE #387,-88.0430332,42.05475149999999
ORLAND PARK,9915 W 159TH ST,IL,60462,COSTCO PHARMACY STORE #647,-87.8614205,41.59976020000001
MT. PROSPECT,999 N ELMHURST RD,IL,60056,COSTCO PHARMACY STORE #779,-87.9325787,42.0833307
BRIDGEVIEW,7261 W 87TH ST,IL,60455,CRESCENT PHARMACY,-87.8013118,41.7327243
FLOSSMOOR,3200 FLOSSMOOR RD,IL,60422,CVS PHARMACY STORE #70,-87.69484109999999,41.5430396
NORTHBROOK,936 WILLOW RD,IL,60062,CVS PHARMACY STORE #141,-87.8024407,42.1084168
HICKORY HILLS,8811 W 87TH ST,IL,60457,CVS PHARMACY STORE #834,-87.8392427,41.7322377
OLYMPIA FIELDS,3400 LINCOLN HWY,IL,60461,CVS PHARMACY STORE #1768,-87.7000949,41.5068694
TINLEY PARK,9551 171ST ST,IL,60487,CVS PHARMACY STORE #1773,-87.851062,41.5789084
NORTH RIVERSIDE,7200 W CERMAK RD,IL,60546,CVS PHARMACY STORE #1965,-87.804374,41.85082320000001
CHICAGO HEIGHTS,11 E 14TH ST,IL,60411,CVS PHARMACY STORE #2664,-87.64061559999999,41.5067615
EVERGREEN PARK,3201 W 95TH ST,IL,60805,CVS PHARMACY STORE #2790,-87.7022795,41.7206507
NILES,9640 N MILWAUKEE AVE,IL,60714,CVS PHARMACY STORE #2797,-87.8396648,42.0554056
HILLSIDE,600 NORTH MANNHEIM RD,IL,60162,CVS PHARMACY STORE #2827,-87.88402889999999,41.882006
ROLLING MEADOWS,2045 PLUM GROVE RD,IL,60008,CVS PHARMACY STORE #2863,-88.04448490000001,42.0879273
MOUNT PROSPECT,1002 S BUSSE RD,IL,60056,CVS PHARMACY STORE #3110,-87.960779,42.0477198
LEMONT,12720 ARCHER RD,IL,60439,CVS PHARMACY STORE #3256,-87.97447939999999,41.6566084
TINLEY PARK,16701 S HARLEM AVE,IL,60477,CVS PHARMACY STORE #3603,-87.79301009999999,41.5870125
PARK RIDGE,2648 DEMPSTER ST,IL,60068,CVS PHARMACY STORE #4396,-87.85796789999999,42.0399389
BRIDGEVIEW,8625 S HARLEM AVE,IL,60459,CVS PHARMACY STORE #4487,-87.79792750000001,41.7339441
NILES,7139 N MILWAUKEE AVE,IL,60714,CVS PHARMACY STORE #4581,-87.8000786,42.011007
MIDLOTHIAN,14701 S PULASKI RD,IL,60472,CVS PHARMACY STORE #4978,-87.71794729999999,41.64026459999999
BROOKFIELD,8911 OGDEN AVE,IL,60513,CVS PHARMACY STORE #5213,-87.844769,41.8164081
CALUMET CITY,470 S TORRENCE AVE,IL,60409,CVS PHARMACY STORE #5769,-87.5595127,41.6237126
PALOS HEIGHTS,11859 SOUTHWEST HWY,IL,60463,CVS PHARMACY STORE #5819,-87.81482670000001,41.6754533
PALATINE,200 W NORTHWEST HWY,IL,60067,CVS PHARMACY STORE #5913,-88.04922189999999,42.1230684
SCHAUMBURG,1855 W IRVING PARK RD,IL,60193,CVS PHARMACY STORE #7143,-88.1266732,42.00234589999999
RIVERDALE,250 W ST,IL,60827,CVS PHARMACY STORE #7166,-87.6287412,41.6330012
STREAMWOOD,680 S SUTTON RD,IL,60107,CVS PHARMACY STORE #7255,-88.2038863,42.019869
FRANKLIN PARK,10420 GRAND AVE,IL,60131,CVS PHARMACY STORE #7761,-87.88620809999999,41.9308823
ORLAND PARK,11201 W 143RD STREET,IL,60467,CVS PHARMACY STORE #8500,-87.89317179999999,41.6291767
WORTH,6748 W 111TH ST,IL,60482,CVS PHARMACY STORE #8505,-87.7873238,41.690805
PARK FOREST,1 MAIN ST,IL,60466,CVS PHARMACY STORE #8512,-87.6751415,41.4838803
SCHAUMBURG,1801 W GOLF RD,IL,60194,CVS PHARMACY STORE #8734,-88.1246773,42.0468719
CICERO,5524 W CERMAK RD,IL,60804,CVS PHARMACY STORE #8742,-87.7625363,41.8513899
LINCOLNWOOD,3950 W DEVON AVE,IL,60712,CVS PHARMACY STORE #8749,-87.7281987,41.9977775
OAK FOREST,15840 S CICERO AVE,IL,60452,CVS PHARMACY STORE #8949,-87.73719150000001,41.6043267
WILMETTE,1515 SHERIDAN RD,IL,60091,CVS PHARMACY STORE #10052,-87.70112429999999,42.0873267
ORLAND PARK,14290 S LA GRANGE RD,IL,60462,CVS PHARMACY STORE #10555,-87.8545326,41.6308127
CICERO,2901 S CICERO AVE,IL,60804,CVS PHARMACY STORE #16219,-87.740961,41.8394839
SCHAUMBURG,2621 W SCHAUMBURG RD,IL,60193,CVS PHARMACY STORE #16279,-88.1460652,42.0228977
ORLAND PARK,15850 S 94TH AVE,IL,60467,CVS PHARMACY STORE #16286,-87.8505248,41.6028313
HODGKINS,9250 JOLIET RD,IL,60525,CVS PHARMACY STORE #16287,-87.8595792,41.7808822
CRESTWOOD,5071 CAL SAG RD,IL,60445,CVS PHARMACY STORE #16306,-87.7463456,41.6569308
SCHAUMBURG,1235 E HIGGINS RD,IL,60173,CVS PHARMACY STORE #16316,-88.0489927,42.0373801
NILES,6150 W TOUHY AVE,IL,60714,CVS PHARMACY STORE #16350,-87.77986899999999,42.0130171
NILES,239 GOLF MILL CTR,IL,60714,CVS PHARMACY STORE #16492,-87.83710339999999,42.0509874
ARLINGTON HEIGHTS,1700 E RAND RD,IL,60004,CVS PHARMACY STORE #16534,-87.9618124,42.1020188
HOMEWOOD,17605 S HALSTED ST,IL,60430,CVS PHARMACY STORE #16792,-87.6337535,41.56911909999999
NORRIDGE,4050 N HARLEM AVE,IL,60706,CVS PHARMACY STORE #17008,-87.8090663,41.9535179
BROADVIEW,800 BROADVIEW VILLAGE SQ,IL,60155,CVS PHARMACY STORE #17169,-87.8508318,41.8550927
OAK LAWN,4120 W 95TH ST,IL,60453,CVS PHARMACY STORE #17175,-87.7257271,41.7212672
HILLSIDE,130 S MANNHEIM RD,IL,60162,CVS PHARMACY STORE #17536,-87.88780480000001,41.868343
OLYMPIA FIELDS,3322 VOLLMER RD,IL,60461,DIALYSIS CARE CTR-OLYMPIA FIELDS,-87.69697649999999,41.5269069
ALSIP,12250 S CICERO AVE,IL,60803,FRESENIUS KIDNEY CARE ALSIP,-87.73980720000002,41.6693369
OLYMPIA FIELDS,2609 LINCOLN HWY,IL,60461,FRESENIUS KIDNEY CARE SOUTH SUBURBAN,-87.6808805,41.5065239
HARVEY,1 INGALLS DR,IL,60426,INGALLS MEMORIAL HOSPITAL,-87.65960729999999,41.6074558
SOUTH CHICAGO HEIGHTS,3240 CHICAGO RD,IL,60411,JEWEL-OSCO PHARMACY STORE #3167,-87.63878799999999,41.479212
ARLINGTON HEIGHTS,121 S WILKE RD,IL,60005,LEGACY MEDICAL CARE- ARLINGTON HEIGHTS,-88.00326179999999,42.0808699
BERWYN,3249 OAK PARK,IL,60402,MACNEAL HOSPITAL,-87.79281859999999,41.832755
SCHAUMBURG,129 S ROSELLE RD,IL,60193,MARA PHARMACY,-88.0793126,42.0238922
DES PLAINES,1173 E ALGONQUIN RD,IL,60016,MEDICAL HEALTH CLINIC,-87.89493499999999,42.0310327
CRESTWOOD,13601 KENTON AVE,IL,60418,MEDICATION MANAGEMENT PARTNERS,-87.7327292,41.64474999999999
ROLLING MEADOWS,1301 MEIJER DRIVE,IL,60008,MEIJER PHARMACY STORE #228,-87.99639909999999,42.0479199
ORLAND PARK,15701 71ST COURT,IL,60462,MEIJER PHARMACY STORE #262,-87.79078179999999,41.60466419999999
EVERGREEN PARK,9200 S WESTERN AVE,IL,60805,MEIJER PHARMACY STORE #265,-87.6855404,41.7246667
FLOSSMOOR,3800 VOLLMER RD,IL,60422,MEIJER PHARMACY STORE #280,-87.710641999999993,41.5305737
SOUTH HOLLAND,763 E 162ND ST,IL,60473,JEWEL-OSCO PHARMACY STORE #63,-87.5983474,41.59996049999999
OAK LAWN,4650 W 103RD ST,IL,60453,JEWEL-OSCO PHARMACY STORE #157,-87.7372361,41.7067245
OAK LAWN,9424 S PULASKI RD,IL,60453,JEWEL-OSCO PHARMACY STORE #607,-87.7221072,41.7211296
HOMEWOOD,3153 183RD ST,IL,60430,JEWEL-OSCO PHARMACY STORE #659,-87.69316479999999,41.5558941
GLENVIEW,2775 PFINGSTEN RD,IL,60026,JEWEL-OSCO PHARMACY STORE #2219,-87.8458103,42.1050165
LA GRANGE PARK,507 E WOODLAWN AVE,IL,60526,JEWEL-OSCO PHARMACY STORE #2265,-87.8682403,41.82384769999999
SCHAUMBURG,2503 W SCHAUMBURG RD,IL,60194,JEWEL-OSCO PHARMACY STORE #3216,-88.1431996,42.0246934
ELGIN,1040 SUMMIT ST,IL,60120,JEWEL-OSCO PHARMACY STORE #3291,-88.25265870000001,42.048073
HOFFMAN ESTATES,1071 N ROSELLE RD,IL,60169,JEWEL-OSCO PHARMACY STORE #3316,-88.07947949999999,42.04743999999999
NILES,7900 N MILWAUKEE AVE,IL,60714,JEWEL-OSCO PHARMACY STORE #3446,-87.8146345,42.0246301
DES PLAINES,811 ELMHURST RD,IL,60016,JEWEL-OSCO PHARMACY STORE #3473,-87.9388367,42.0371656
MOUNT PROSPECT,335 E EUCLID AVE,IL,60056,JEWEL-OSCO PHARMACY STORE #3476,-87.9308135,42.0877583
ARLINGTON HEIGHTS,442 E RAND RD,IL,60004,JEWEL-OSCO PHARMACY STORE #3478,-87.97780619999999,42.1110604
PARK RIDGE,491 BUSSE HWY,IL,60068,JEWEL-OSCO PHARMACY STORE #3481,-87.8401927,42.0157213
NILES,5665 W TOUHY AVE,IL,60714,JEWEL-OSCO PHARMACY STORE #3484,-87.7685118,42.0118017
ROLLING MEADOWS,3004 KIRCHOFF RD,IL,60008,JEWEL-OSCO PHARMACY STORE #3491,-88.0173815,42.0778606
FRANKLIN PARK,10203 GRAND AVE,IL,60131,JEWEL-OSCO PHARMACY STORE #4057,-87.8803998,41.9294431
TINLEY PARK,17113 HARLEM AVE,IL,60477,JEWEL-OSCO PHARMACY STORE #3165,-87.79318669999999,41.5800277
ARLINGTON HEIGHTS,122 N VAIL AVE,IL,60005,JEWEL-OSCO PHARMACY STORE #3422,-87.98545969999999,42.0842831
PALOS HEIGHTS,12803 S HARLEM AVE,IL,60463,JEWEL-OSCO PHARMACY STORE #3053,-87.79484339999999,41.6591133
PALOS HEIGHTS,12251 S 80TH AVE,IL,60463,PALOS COMMUNITY HOSPITAL PHARMACY,-87.8121386,41.6690972
SCHAUMBURG,1355 REMINGTON RD,IL,60173,PRIME CARE PHYSICIANS,-88.04754109999999,42.05243170000001
PALATINE,777 N QUENTIN RD,IL,60067,PROHEALTH DRUGS,-88.06199029999999,42.1242786
MORTON GROVE,6227 PARK AVE,IL,60053,RXPERTS PHARMACY CHICAGO LLC,-87.7830123,42.0276454
CICERO,2601 S CICERO AVE,IL,60804,WALMART PHARMACY STORE #6328,-87.7411147,41.8430671
EVERGREEN PARK,9400 S WESTERN AVE,IL,60805,WALMART PHARMACY STORE #6349,-87.6850783,41.7229466
HODGKINS,9500 JOLIET RD,IL,60525,WALMART PHARMACY STORE #6384,-87.86295489999999,41.7787695
DES PLAINES,101 W OAKTON ST,IL,60018,WALMART PHARMACY STORE #6464,-87.9230618,42.0217217
CALUMET CITY,603 RIVER OAKS,IL,60409,WALMART PHARMACY STORE #6489,-87.5618314,41.5964837
TINLEY PARK,18210 LA GRANGE RD,IL,60487,TINLEY PARK PHARMACY,-87.8549012,41.5616329
ARLINGTON HEIGHTS,33 S ARLINGTON HEIGHTS RD,IL,60005,VILLAGE OF ARLINGTON HEIGHTS,-87.97987429999999,42.0816358
WILMETTE,811 GREEN BAY RD,IL,60091,WALGREENS PHARMACY STORE #1033,-87.7109115,42.0780317
GLENVIEW,2871 PFINGSTEN RD,IL,60026,WALGREENS PHARMACY STORE #2528,-87.84845279999999,42.1072923
ARLINGTON HEIGHTS,1711 W CAMPBELL ST,IL,60005,WALGREENS PHARMACY STORE #3512,-88.0042898,42.0818457
LEMONT,15575 E 127TH ST,IL,60439,WALGREENS PHARMACY STORE #3710,-87.9992291,41.6571572
NORTHFIELD,1825 WILLOW RD,IL,60093,WALGREENS PHARMACY STORE #3926,-87.7721054,42.1021335
FOREST PARK,7200 ROOSEVELT RD,IL,60130,WALGREENS PHARMACY STORE #3960,-87.8050336,41.8646629
PROSPECT HEIGHTS,1 N ELMHURST RD,IL,60070,WALGREENS PHARMACY STORE #4146,-87.93616109999999,42.0957693
MORTON GROVE,9301 WAUKEGAN RD,IL,60053,WALGREENS PHARMACY STORE #4503,-87.79901450000001,42.0505855
PARK RIDGE,901 W TOUHY AVE,IL,60068,WALGREENS PHARMACY STORE #4540,-87.83632779999999,42.0107737
TINLEY PARK,16675 OAK PARK AVE,IL,60477,WALGREENS PHARMACY STORE #4743,-87.78363499999999,41.588392
WHEELING,10 N MILWAUKEE AVE,IL,60090,WALGREENS PHARMACY STORE #4941,-87.90879389999999,42.1402577
ALSIP,12290 S PULASKI RD,IL,60803,WALGREENS PHARMACY STORE #5055,-87.72041709999999,41.6702007
POSEN,3145 W 147TH ST,IL,60469,WALGREENS PHARMACY STORE #5193,-87.6975925,41.6253992
MORTON GROVE,5730 DEMPSTER ST,IL,60053,WALGREENS PHARMACY STORE #5364,-87.7707217,42.0412208
NILES,8001 N MILWAUKEE AVE,IL,60714,WALGREENS PHARMACY STORE #5542,-87.8137515,42.0265815
WHEELING,1199 W DUNDEE RD,IL,60090,WALGREENS PHARMACY STORE #5609,-87.94592870000001,42.1381945
OAK LAWN,4740 W 95TH ST,IL,60453,WALGREENS PHARMACY STORE #5713,-87.74012359999999,41.7207084
ELK GROVE VILLAGE,641 MEACHAM RD,IL,60007,WALGREENS PHARMACY STORE #5735,-88.045249,42.0061457
HILLSIDE,2151 S WOLF RD,IL,60162,WALGREENS PHARMACY STORE #6046,-87.9007611,41.8486424
ORLAND PARK,14680 S LA GRANGE RD,IL,60462,WALGREENS PHARMACY STORE #6580,-87.8545918,41.6237132
SCHAUMBURG,1461 W SCHAUMBURG RD,IL,60194,WALGREENS PHARMACY STORE #7545,-88.1171261,42.025406
LINCOLNWOOD,6798 N LINCOLN AVE,IL,60712,WALGREENS PHARMACY STORE #9358,-87.730006,42.0039323
SCHAUMBURG,770 E SCHAUMBURG RD,IL,60194,WALGREENS PHARMACY STORE #9506,-88.0614439,42.0286973
SCHAUMBURG,1180 S ROSELLE RD,IL,60193,WALGREENS PHARMACY STORE #12623,-88.08083950000001,42.0058158
WILMETTE,3232 LAKE AVE,IL,60091,WALGREENS PHARMACY STORE #15211,-87.75653360000001,42.0822528
OAK LAWN,6001 W 95TH ST,IL,60453,WALGREENS PHARMACY STORE #16000,-87.7706267,41.7190233
WINNETKA,925 GREEN BAY RD,IL,60093,WALGREENS PHARMACY STORE #21150,-87.743038,42.1168552
MARKHAM,15940 KEDZIE AVE,IL,60428,WALGREENS PHARMACY STORE #21247,-87.69497439999999,41.5995549
OAK LAWN,10639 S CICERO AVE,IL,60453,WALGREENS PHARMACY STORE #1504,-87.73919169999999,41.69874129999999
HOMEWOOD,820 183RD ST,IL,60430,WALGREENS PHARMACY STORE #3179,-87.6373775,41.5580496
PARK FOREST,15 S ORCHARD DR,IL,60466,WALGREENS PHARMACY STORE #4532,-87.6833068,41.4842007
SCHILLER PARK,9800 IRVING PARK RD,IL,60176,WALGREENS PHARMACY STORE #4826,-87.8716232,41.9560073
LANSING,3564 RIDGE RD,IL,60438,WALGREENS PHARMACY STORE #5126,-87.52992619999999,41.564837
CHICAGO HEIGHTS,650 DIXIE HWY,IL,60411,WALGREENS PHARMACY STORE #5355,-87.64984779999999,41.5195961
DES PLAINES,17 W GOLF RD,IL,60016,WALGREENS PHARMACY STORE #5711,-87.92191249999999,42.0480686
WORTH,6430 W 111TH ST,IL,60482,WALGREENS PHARMACY STORE #5924,-87.77967129999999,41.6906547
HOMEWOOD,18300 GOVERNORS HWY,IL,60430,WALGREENS PHARMACY STORE #9330,-87.6826906,41.5567762
TINLEY PARK,8400 171ST ST,IL,60487,WALGREENS PHARMACY STORE #9331,-87.8234276,41.5805735
BERWYN,7113 CERMAK RD,IL,60402,WALGREENS PHARMACY STORE #11154,-87.8011542,41.8498883
PALOS HEIGHTS,12659 S RIDGELAND AVE,IL,60463,WALGREENS PHARMACY STORE #9347,-87.7770251,41.6618085
BROADVIEW,1600 W ROOSEVELT RD,IL,60155,WALGREENS PHARMACY STORE #5149,-87.8520741,41.8637774
HOMETOWN,8701 S CICERO AVE,IL,60456,WALGREENS PHARMACY STORE #6629,-87.7404849,41.7339477
DOLTON,1150 E SIBLEY BLVD,IL,60419,WALGREENS PHARMACY STORE #6332,-87.5887777,41.6231365
BRIDGEVIEW,7878 S HARLEM AVE,IL,60455,WALGREENS PHARMACY STORE #6427,-87.8005396,41.7486094
CICERO,5932 W CERMAK RD,IL,60804,WALGREENS PHARMACY STORE #5103,-87.7728742,41.8512073
DES PLAINES,21 RAND RD,IL,60016,WALGREENS PHARMACY STORE #6601,-87.9205334,42.0656664
PALOS HILLS,11053 SOUTHWEST HWY,IL,60465,WALGREENS PHARMACY STORE #5925,-87.80883589999999,41.6901264
RIVER GROVE,8361 BELMONT AVE,IL,60171,WALGREENS PHARMACY STORE #829,-87.83540459999999,41.9353501
BRIDGEVIEW,8715 S HARLEM AVE,IL,60455,WALGREENS PHARMACY STORE #89,-87.7974665,41.7328467
HARVEY,14700 HALSTED ST,IL,60426,WALGREENS PHARMACY STORE #2558,-87.64200330000001,41.6222116
MAYWOOD,100 LAKE ST,IL,60153,WALGREENS PHARMACY STORE #3779,-87.8349612,41.8884716
DES PLAINES,1858 E OAKTON ST,IL,60018,WALGREENS PHARMACY STORE #2212,-87.8780659,42.0246911
WESTCHESTER,10345 W ROOSEVELT RD,IL,60154,WALGREENS PHARMACY STORE #4664,-87.88174699999999,41.8627245
HILLSIDE,4730 BUTTERFIELD RD,IL,60162,WALGREENS PHARMACY STORE #4009,-87.9020118,41.8781281
NILES,5600 W TOUHY AVE,IL,60714,WALGREENS PHARMACY STORE #5282,-87.7681065,42.0125499
DES PLAINES,1378 MINER ST,IL,60016,WALGREENS PHARMACY STORE #6866,-87.8900283,42.0428503
ARLINGTON HEIGHTS,3 E GOLF RD,IL,60005,WALGREENS PHARMACY STORE #5594,-87.9813281,42.0508262
OLYMPIA FIELDS,20950 GOVERNORS HWY,IL,60461,WALGREENS PHARMACY STORE #3651,-87.712451,41.5085594
GLENCOE,353 PARK AVE,IL,60022,WALGREENS PHARMACY STORE #15047,-87.75965029999999,42.1344697
OAK LAWN,4440 W 95TH ST STE 201P,IL,60453,WALGREENS PHARMACY STORE #15460,-87.73261819999999,41.721808
PARK RIDGE,1775 W DEMPSTER ST,IL,60068,WALGREENS PHARMACY STORE #13924,-87.847611,42.0384783
STREAMWOOD,850 S BARRINGTON RD,IL,60107,WALMART PHARMACY STORE #1420,-88.1483521,42.0147349
RICHTON PARK,22401 CENTRAL AVE,IL,60471,WALMART PHARMACY STORE #1497,-87.74988359999999,41.4812222
ORLAND HILLS,9265 159TH ST,IL,60487,WALMART PHARMACY STORE #1556,-87.84296780000001,41.5991373
BRIDGEVIEW,10260 S HARLEM AVE,IL,60455,WALMART PHARMACY STORE #1779,-87.8006164,41.7063864
NORTHLAKE,137 W NORTH AVE,IL,60164,WALMART PHARMACY STORE #1933,-87.9085795,41.9045774
FOREST PARK,1300 DES PLAINES AVE,IL,60130,WALMART PHARMACY STORE #2204,-87.8176683,41.8616063
NILES,5630 W TOUHY AVE,IL,60714,WALMART PHARMACY STORE #2816,-87.7689335,42.0148591
LANSING,17625 TORRENCE AVE,IL,60438,WALMART PHARMACY STORE #2817,-87.5553451,41.5749696
CRESTWOOD,4700 135TH ST,IL,60445,WALMART PHARMACY STORE #3601,-87.73419109999999,41.6484389
NILES,8500 W GOLF RD,IL,60714,WALMART PHARMACY STORE #3725,-87.8354813,42.0564478
OLYMPIA FIELDS,21000 WESTERN AVE,IL,60461,WALMART PHARMACY STORE #4049,-87.6775296,41.5075885
PALATINE,1555 N RAND RD,IL,60074,WALMART PHARMACY STORE #5276,-88.017811,42.13758380000001
HOMEWOOD,17550 SOUTH HALSTED ST,IL,60430,WALMART PHARMACY STORE #5404,-87.64018899999999,41.5698175
COUNRY CLUB HILLS,4005 167TH ST,IL,60478,WALMART PHARMACY STORE #5486,-87.71618409999999,41.5834121
DES PLAINES,727 W GOLF RD,IL,60016,WALMART PHARMACY STORE #6167,-87.938222,42.0459856
LA GRANGE,5101 WILLOW SPRINGS RD (ATTN PHARMACY),IL,60525,AMITA ADVANCED MEDICAL CENTER LA GRANGE,-87.8863744,41.7967109
NORTH RIVERSIDE,7503 W CERMAK RD,IL,60546,AMITA HEALTH MEDICAL GROUP FAMILY MEDICINE NORTH RIVERSIDE,-87.8123863,41.8501667
ELK GROVE VILLAGE,800 BIESTERFIELD RD,IL,60007,AHMG INTERNAL MEDICINE ELK GROVE,-88.01637099999999,42.0045204
LINCOLNWOOD,6421 N HAMLIN AVE,IL,60712,"AMERICAN HOME CARE EXPRESS, INC.",-87.72368999999999,41.998061
NILES,7550 N OAK PARK AVE,IL,60714,"CARE ONE PHARMACY SERVICES, LLC",-87.7946237,42.0185602
DES PLAINES,200 HOWARD AVE,IL,60018,UVANTA PHARMACY - NORTHERN IL,-87.91638359999999,42.0162011
CICERO,2250 S AVE,IL,60804,TOWN OF CICERO HEALTH DEPARTMENT,-87.7445832,41.8499413
OAK FOREST,15900 S CICERO AVE,IL,60452,COOK COUNTY DEPARTMENT OF PUBLIC HEALTH,-87.7324684,41.6032081
BRIDGEVIEW,7261 W 87TH ST,IL,60455,CRESCENT PHARMACY,-87.8013118,41.7327243
PALATINE,679 E DUNDEE RD,IL,60074,CVS PHARMACY STORE #CVS STORE #16229,-88.0269843,42.137124
MELROSE PARK,850 W NORTH AVE,IL,60160,CVS PHARMACY STORE #CVS STORE #16281,-87.8434642,41.9052039
GLENVIEW,2241 WILLOW RD,IL,60025,CVS PHARMACY STORE #CVS STORE #16528,-87.81367469999999,42.102081
LEMONT,13460 S ARCHER AVE,IL,60439,CVS PHARMACY STORE #CVS STORE #16568,-88.00435329999999,41.644552
ROSEMONT,7000 MANNHEIM RD,IL,60018,CVS PHARMACY STORE #CVS STORE #16682,-87.88719139999999,42.0071456
STREAMWOOD,1001 SUTTON RD,IL,60107,CVS PHARMACY STORE #17067,-88.20015579999999,42.0174127
HOFFMAN ESTATES,2800 N SUTTON RD,IL,60192,CVS PHARMACY STORE #17205,-88.1936075,42.0740606
COUNTRY CLUB HILLS,4215 167TH ST,IL,60478,DAVITA-COUNTRY HILLS DIALYSIS(COUNTRY CLUB HILLS),-87.7225335,41.5850579
PARK FOREST,114 N ORCHARD DR,IL,60466,ELISABETH LUDEMAN DEVELOPMENTAL CENTER,-87.686539,41.495513
BERWYN,2601 S HARLEM AVE,IL,60402,FRESENIUS KIDNEY CARE BERWYN,-87.8027499,41.8427687
OLYMPIA FIELDS,20201 CRAWFORD AVE,IL,60461,FRANCISCAN HEALTH OLYMPIA FIELDS,-87.710796,41.5232407
NILES,9371 N MILWAUKEE AVE,IL,60714,FRESENIUS KIDNEY CARE NILES,-87.83279449999999,42.0509093
CHICAGO HEIGHTS,450 W LINCOLN HWY,IL,60411,GENOA HEALTHCARE PHARMACY CHICAGO HEIGHTS,-87.6623159,41.5057209
LEMONT,1202 STATE ST,IL,60439,JEWEL-OSCO PHARMACY STORE #3182,-88.0016001,41.65540730000001
MELROSE PARK,806 W NORTH AVE,IL,60160,"
JEWEL-OSCO PHARMACY STORE #3290",-87.8436869,41.907778
NILES,8730 W DEMPSTER ST,IL,60714,JEWEL-OSCO PHARMACY STORE #3429,-87.844183,42.040851
PALATINE,423 E DUNDEE RD,IL,60074,"
JEWEL-OSCO PHARMACY STORE #3474",-88.03268949999999,42.1378741
WHEELING,56 S MILWAUKEE AVE,IL,60090,KEDVON PHARMACY SOLUTIONS INC,-87.907928,42.1388484
HOFFMAN ESTATES,3333 BEVERLY RD,IL,60179,KMART PHARMACY STORE #4685,-88.2234862,42.0739757
MAYWOOD,2160 S 1ST AVE BLDG 150 RM 1700,IL,60153,LOYOLA UNIVERSITY MEDICAL CENTER,-87.8353106,41.85861269999999
DES PLAINES,2307 S MOUNT PROSPECT RD,IL,60018,"MAC RX, LLC",-87.9179384,42.0119359
WESTERN SPRINGS,4700 GILBERT AVE STE 14,IL,60558,MARIANO'S PHARMACY STORE #529,-87.89042909999999,41.803648
ARLINGTON HEIGHTS,800 W CENTRAL RD,IL,60005,NORTHWEST COMMUNITY HEALTHCARE ARLINGTON HEIGHTS,-87.9924834,42.0681926
OAK LAWN,4700 W 95TH ST STE 301,IL,60453,ALZEIN PEDIATRICS,-87.7380937,41.7203989
GLENVIEW,2502 WAUKEGAN RD,IL,60025,JEWEL-OSCO PHARMACY STORE #3426,-87.79865819999999,42.0999194
PALATINE,33 S PLUM GROVE RD,IL,60067,"
JEWEL-OSCO PHARMACY STORE #3445",-88.04293899999999,42.1092773
STREAMWOOD,217 E IRVING PARK RD,IL,60107,JEWEL-OSCO PHARMACY STORE #4268,-88.17791369999999,42.011588
PALOS PARK,9650 W 131ST ST,IL,60464,JEWEL-OSCO PHARMACY STORE #2160,-87.85608920000001,41.6532588
ORLAND PARK,17930 WOLF RD,IL,60467,"
JEWEL-OSCO PHARMACY STORE #3192",-87.89317179999999,41.563074
EVERGREEN PARK,2800 W 95TH ST,IL,60805,OSF LITTLE COMPANY OF MARY MEDICAL CENTER,-87.6923621,41.7210663
HOFFMAN ESTATES,1555 BARRINGTON RD BLDG 1,IL,60169,ABMG - POPLAR CREEK FAMILY PRACTICE,-88.141472,42.053757
NORTHLAKE,141 W NORTH AVE,IL,60164,SAMS CLUB STORE #6358,-87.94177169999999,41.9063927
HILLSIDE,150 FENCL LN,IL,60162,UNITED RX PHARMACY,-87.8946284,41.8676146
CALUMET CITY,1837 RIVER OAKS DR,IL,60409,VICTORY PHARMACY,-87.5705869,41.6003438
PALATINE,12 N NORTHWEST HWY,IL,60067,WALGREEN PHARMACY STORE #4355,-88.0347038,42.1107768
GLENVIEW,3301 GLENVIEW RD,IL,60025,WALGREENS PHARMACY STORE #4611,-87.84047079999999,42.0726927
MOUNT PROSPECT,1701 E KENSINGTON RD,IL,60056,WALGREENS PHARMACY STORE #5107,-87.9065864,42.0800948
HOFFMAN ESTATES,1550 W ALGONQUIN RD,IL,60192,WALGREENS PHARMACY STORE #5553,-88.1175355,42.0911554
GLENVIEW,2690 GOLF RD,IL,60025,WALGREENS PHARMACY STORE #6228,-87.8249633,42.0558631
ORLAND PARK,17955 WOLF RD,IL,60467,WALGREENS PHARMACY STORE #6439,-87.8897216,41.563089
PALATINE,805 W EUCLID AVE,IL,60067,WALGREENS PHARMACY STORE #7754,-88.0629714,42.0860767
NORTHBROOK,1050 WAUKEGAN RD,IL,60062,WALGREEN PHARMACY STORE #12584,-87.8220468,42.1330426
ORLAND PARK,11981 W 143RD ST,IL,60467,WALGREEN PHARMACY STORE #11224,-87.9108782,41.6289535
PALOS PARK,13023 S LA GRANGE RD,IL,60464,WALGREEN PHARMACY STORE #6377,-87.8532106,41.6537528
OAK FOREST,5525 159TH ST,IL,60452,WALGREENS PHARMACY STORE #5104,-87.754575,41.6023283
ARLINGTON HEIGHTS,1120 N ARLINGTON HEIGHTS RD,IL,60004,ACCESS NORTHWEST FAMILY HEALTH CENTER,-87.9817872,42.0964237
WHEELING,300 MCHENRY RD,IL,60090,CREEKSIDE HEALTH CENTER,-87.9360489,42.1434764
BRIDGEVIEW,7261 W 87TH ST,IL,60455,CRESCENT PHARMACY,-87.8013118,41.7327243
CRESTWOOD,13601 KENTON AVE,IL,60445,MEDICATION MANAGEMENT PARTNERS,-87.7327292,41.64474999999999
HOFFMAN ESTATES,1650 MOON LAKE BLVD,IL,60169,ALEXIAN BROTHERS BEHAVIORAL HEALTH HOSPI,-88.1372978,42.0540731
LEMONT,9700 S CASS AVE,IL,60439,ARGONNE NATIONAL LABORATORY,-87.9607812,41.7129803
CHICAGO HEIGHTS,1536 VINCENNES AVE,IL,60411,CHICAGO HEIGHTS COMM HLTH CTR,-87.6385725,41.5030113
HOFFMAN ESTATES,1041 WEST GOLF RD,IL,60169,COMPASSIONATE CARE PHARMACY,-88.10546389999999,42.0472924
BRIDGEVIEW,7261 W 87TH ST,IL,60455,CRESCENT PHARMACY,-87.8013118,41.7327243
ELGIN,500 DUNDEE AVE,IL,60120,CVS PHARMACY STORE #5829,-88.27645439999999,42.046808
NORTHBROOK,3780 WILLOW RD,IL,60062,CVS PHARMACY STORE #10467,-87.8732723,42.1093364
WHEELING,1400 E LAKE COOK RD,IL,60090,CVS PHARMACY STORE #16724,-87.9503692,42.1543214
TINLEY PARK,7300 191ST ST,IL,60487,CVS PHARMACY STORE #17128,-87.79616039999999,41.5450357
EVERGREEN PARK,2850 W 95TH ST STE 100,IL,60805,EVERGREEN PARK PHARMACY,-87.6939348,41.7214911
HARVEY,31 W 155TH ST,IL,60426,FAMILY CHRISTIAN HEALTH CENTER HARVEY,-87.6579589,41.6084339
DES PLAINES,1400 E GOLF ROAD,IL,60016,HOLY FAMILY PLAZA PHARMACY,-87.89225499999999,42.0544096
HANOVER PARK,1515 E LAKE ST,IL,60133,LAKE HEALTH CENTER,-88.14354949999999,41.9839369
HANOVER PARK,1515 E LAKE ST,IL,60133,LAKE HEALTH CENTER,-88.14354949999999,41.9839369
DES PLAINES,2307 S MOUNT PROSPECT RD,IL,60018,MAC RX LLC,-87.9179384,42.0119359
SCHAUMBURG,129 S ROSELLE RD,IL,60193,MARA PHARMACY,-88.0793126,42.0238922
DES PLAINES,2313 S MOUNT PROSPECT RD,IL,60018,CVS PHARMACY STORE #48241,-87.9188456,42.012078700000004
ELGIN,373 SUMMIT ST,IL,60120,SUMMIT HEALTH CENTER,-88.2776705,42.046053
HANOVER PARK,2040 ARMY TRAIL RD,IL,60133,WALGREENS PHARMACY STORE #2447,-88.15448789999999,41.9414072
HANOVER PARK,5500 COUNTY FARM RD,IL,60133,WALGREENS PHARMACY STORE #5366,-88.15102,41.9732193
ELGIN,600 VILLA ST,IL,60120,WALGREENS PHARMACY STORE #9439,-88.2676632,42.0310588
BERWYN,6600 26TH ST,IL,60402,BERWYN PUBLIC HEALTH DISTRICT,-87.7884606,41.8430444
ORLAND PARK,9160 W 159TH ST,IL,60467,FRESENIUS KIDNEY CARE ORLAND PARK,-87.8409503,41.6025763
DES PLAINES,1400 E GOLF RD STE 101,IL,60016,HOLY FAMILY PLAZA PHARMACY,-87.88987499999999,42.0549067
HOFFMAN ESTATES,3333 BEVERLY RD,IL,60179,KMART PHARMACY STORE #4685,-88.2234862,42.0739757
TINLEY PARK,6701 159TH ST,IL,60477,U OF C OCCUPATIONAL MEDICINE,-87.7810219,41.6019049
MOUNT PROSPECT,930 MOUNT PROSPECT PLAZA,IL,60056,WALMART PHARMACY STORE #1681,-87.92352149999999,42.0691978
HODGKINS,9450 W JOLIET RD,IL,60525,WALMART PHARMACY STORE #1892,-87.86359949999999,41.77784399999999
BEDFORD PARK,7050 S CICERO AVE,IL,60638,WALMART PHARMACY STORE #1938,-87.7454226,41.7654975
ROLLING MEADOWS,1460 GOLF RD,IL,60008,WALMART PHARMACY STORE #2815,-88.0003763,42.0532457
CICERO,3320 S CICERO AVE,IL,60804,WALMART PHARMACY STORE #3004,-87.7471054,41.8309205
EVERGREEN PARK,2500 W 95TH ST,IL,60805,WALMART PHARMACY STORE #5485,-87.6846917,41.7209755
BLUE ISLAND,13000 MAPLE AVE,IL,60406,ACCESS COMMUNITY HEALTH NETWORK,-87.68527089999999,41.65685
ELK GROVE VILLAGE,800 BIESTERFIELD RD STE 210,IL,60007,NORTHWEST ONCOLOGY & HEMATOLOGY ELK GROVE,-88.0164398,42.0046582
LINCOLNWOOD,7380 N LINCOLN AVE,IL,60712,AMITA MEDICAL GROUP LINCOLNWOOD,-87.7436183,42.0145952
HOFFMAN ESTATES,1555 BARRINGTON RD,IL,60169,APSG - CPB CLINIC,-88.1410337,42.0529739
NILES,8321 W GOLF RD STE 104,IL,60714,ASIAN HUMAN SERVICES FAMILY HEALTH CENTER NILES,-87.8339745,42.05361389999999
ROBBINS,3518 W 139TH ST,IL,60406,BELOVED COMMUNITY FAMILY WELLNESS CENTER,-87.70683149999999,41.6406945
MELROSE PARK,153 BROADWAY ST,IL,60160,BROADWAY MEDICAL CENTER MELROSE PARK,-87.85656519999999,41.89293079999999
CICERO,5712 W 35TH ST,IL,60804,CICERO MEDICAL,-87.76655099999999,41.8292601
HOFFMAN ESTATES,1900 HASSELL RD,IL,60169,VILLAGEOF HOFFMAN ESTATES,-88.12502049999999,42.0639996
NORRIDGE,4701 N CUMBERLAND AVE,IL,60706,FRESENIUS KIDNEY CARE NORRIDGE,-87.8354813,41.96485759999999
RIVER FOREST,103 FOREST AVE,IL,60305,FRESENIUS MEDICAL CARE RIVER FOREST,-87.8207784,41.8816358
EVERGREEN PARK,8901 S KEDZIE AVE,IL,60805,FRESENIUS MEDICAL CARE EVERGREEN PARK,-87.7017888,41.7312901
ROLLING MEADOWS,4180 WINNETKA AVE,IL,60008,FRESENIUS KIDNEY CARE ROLLING MEADOWS,-88.03254179999999,42.0940318
DES PLAINES,1625 OAKTON PL,IL,60018,FRESENIUS MEDICAL CENTER DES PLAINES,-87.89733319999999,42.0228231
ELK GROVE VILLAGE,1001 ROHLWING RD,IL,60007,KENNETH YOUNG CENTER ELK GROVE VILLAGE,-88.0307296,41.9966133
GLENVIEW,2100 PFINGSTEN RD,IL,60026,NORTHSHORE UNIVERSITY HEALTH SYSTEM GLENBROOK HOSPITAL,-87.8548953,42.0924791
SCHAUMBURG,1151 S ROSELLE RD,IL,60193,JEWEL-OSCO PHARMACY STORE #4308,-88.0780147,42.0063103
CRESTWOOD,13755 CICERO AVE,IL,60445,METRO INFECTIOUS DISEASE CONSULTANTS- CRESTWOOD,-87.73724159999999,41.6424668
HOFFMAN ESTATES,1555 N BARRINGTON RD STE 410,IL,60169,MIDWEST INTERNAL MEDICINE CLINIC INC,-88.1410337,42.0529739
EVERGREEN PARK,2850 W 95TH ST STE 106,IL,60805,MIDWEST PRIMARY CARE SC,-87.6939348,41.7214911
ELK GROVE VILLAGE,800 BIESTERFIELD RD STE 206,IL,60007,AHMG-EGIM,-88.0164398,42.0046582
NILES,7900 N MILWAUKEE AVE STE 18,IL,60714,OAK MILL MEDICAL ASSOCIATES,-87.8146345,42.0246301
NILES,7900 N MILWAUKEE AVE STE 226,IL,60714,OAK MILL PEDIATRICS,-87.8146345,42.0246301
BERWYN,7000 W CERMAK RD STE 145,IL,60402,GENOA HEALTHCARE LLC BERWYN,-87.79870799999999,41.8507577
BLUE ISLAND,3046 W 127TH ST,IL,60406,OAK STREET HEALTH BLUE ISLAND,-87.6955904,41.66281790000001
COUNTRYSIDE,6150 JOLIET RD,IL,60525,HEALTHWORKS MEDICAL GROUP OF ILLINOIS OPERATORS HEALTH CENTER,-87.8697493,41.7763461
EVERGREEN PARK,2850 W 95TH ST STE 400,IL,60805,ALZEIN MEDICAL LTD,-87.6939493,41.7214791
EVERGREEN PARK,2850 W 95TH ST STE 205,IL,60805,OSFMG EVERGREEN PARK 205,-87.6939348,41.7214911
LINCOLNWOOD,6557 N LINCOLN AVE,IL,60712,REFUAH311,-87.7225392,42.00026
HOFFMAN ESTATES,1555 BARRINGTON RD,IL,60169,SAINT ALEXIUS MEDICAL CENTER,-88.1410337,42.0529739
ELGIN,801 VILLA ST,IL,60120,VNA HEALTH CARE ELGIN,-88.2595783,42.0270667
CALUMET PARK,12854 S ASHLAND AVE,IL,60827,WALGREENS PHARMACY STORE #10485,-87.6613497,41.6589755
NORRIDGE,4101 N HARLEM AVE,IL,60706,WALGREENS PHARMACY STORE #11332,-87.80668519999999,41.9546342
CICERO,3040 S CICERO AVE STE A,IL,60804,WALGREENS PHARMACY STORE #16093,-87.7443814,41.8375841
ELMWOOD PARK,2828 N HARLEM AVE,IL,60707,WALGREENS PHARMACY STORE #3833,-87.8069156,41.93179
WESTERN SPRINGS,4700 GILBERT AVE STE 58,IL,60558,WALGREEN CO. STORE #5384,-87.88933910000002,41.8040947
MOUNT PROSPECT,930 MOUNT PROSPECT PLAZA (INSIDE WALMART),IL,60056,FAMILY MEDICINE SPECIALISTS MT PROSPECT,-87.92352149999999,42.0691978
DES PLAINES,100 N RIVER RD,IL,60016,AMITA HEALTH HOLY FAMILY MEDICAL CENTER,-87.8894309,42.0553579
CHICAGO HEIGHTS,15 INDEPENDENCE DRIVE,IL,60411,FRESENIUS CHICAGO HEIGHTS DIALYSIS CHICAGO HEIGHTS,-87.639821,41.49950460000001
NORTHLAKE,365 E NORTH AVE,IL,60164,KINDRED HOSPITAL NORTHLAKE,-87.8906288,41.9069329
GLENVIEW,2100 PFINGSTEN RD,IL,60026,NORTHSHORE UNIVERSITY HEALTH SYSTEM NORTHBROOK,-87.8548953,42.0924791
ARLINGTON HEIGHTS,657 E GOLF RD,IL,60005,ABDALLAH KARAM MD,-87.97336980000001,42.0509956
ELGIN,1015 SUMMIT ST,IL,60120,ABMG - ELGIN 2,-88.25353319999999,42.0458054
ELK GROVE VILLAGE,126 BIESTERFIELD RD,IL,60007,ABMG - IMMEDIATE CARE - ELK GROVE VILLAGE,-88.0080622,42.0051604
ARLINGTON HEIGHTS,3040 W SALT CREEK LN,IL,60005,ABMG - MAIN OFFICE,-88.0190342,42.0909685
SCHAUMBURG,350 W SCHAUMBURG RD,IL,60194,ABMG - OAH FRIENDSHIP VILLAGE CLINIC - POS 11,-88.08618609999999,42.0290312
SCHAUMBURG,25 E SCHAUMBURG RD,IL,60194,ABMG - OLD TOWN,-88.07808209999999,42.0270348
SCHAUMBURG,1931 N MEACHAM RD,IL,60173,ABMG - SCHAUMBURG,-88.04219259999999,42.0648625
SUMMIT ARGO,7450 W 63RD ST,IL,60501,ACCESS DES PLAINES VALLEY HEALTH CENTER,-87.80781809999999,41.7773262
DES PLAINES,77 RAND RD,IL,60016,ACMG - DES PLAINES,-87.9194607,42.0647197
OAK LAWN,9555 S 52ND AVE,IL,60453,ADMG OAK LAWN,-87.749999,41.7182827
COUNTRYSIDE,6438 JOLIET RD,IL,60525,ADULT MEDICINE PHYSICIANS -COUNTRYSIDE,-87.8835491,41.7709526
LA GRANGE,5101 WILLOW SPRINGS RD,IL,60525,ADVENTIST LA GRANGE MEMORIAL HOSPITAL,-87.8863882,41.7967451
GLENVIEW,2551 COMPASS RD,IL,60026,ADVOCATE GLENBROOK PEDIATRICS,-87.82012569999999,42.0981876
OAK LAWN,4440 W 95TH ST STE 1200,IL,60453,ADVOCATE MEDICAL GROUP PEDIATRIC AMBULATORY CARE,-87.7325833,41.7216154
OAK LAWN,4220 W ST,IL,60453,ADVOCATE MEDICAL GROUP PEDIATRICS,-87.7270545,41.7114743
BURR RIDGE,901 MCCLINTOCK DR STE 110,IL,60527,AHMG BURRIDGE,-87.90782899999999,41.7538649
LA GRANGE HIGHLANDS,5201 WILLOW SPRINGS RD STE 160,IL,60525,AHMG LAGRANGE,-87.8867494,41.7956411
HOFFMAN ESTATES,1555 BARRINGTON RD STE 335,IL,60169,AHMG - OBGYN - HOFFMAN ESTATES,-88.141472,42.053757
LA GRANGE HIGHLANDS,5201 WILLOW SPRINGS RD STE 120,IL,60525,AHMG OBGYN LAGRANGE,-87.8868033,41.795641
PALATINE,231 E NORTHWEST HWY,IL,60067,AHMG PALATINE,-88.0375505,42.1185659
COUNTRYSIDE,6410 JOLIET RD,IL,60525,"ALL STAR PEDIATRICS, PC",-87.8808651,41.7719911
TINLEY PARK,17333 LA GRANGE RD,IL,60487,ALPHA MED PHYSICIANS GROUP,-87.8508318,41.57477129999999
PARK RIDGE,1775 BALLARD RD,IL,60068,AMG-NESSET FAMILY MEDICINE,-87.8503272,42.0424357
OLYMPIA FIELDS,4001 VOLLMER RD,IL,60461,AMG - OLYMPIA FIELDS,-87.71410589999999,41.5271305
BARRINGTON,1301 S BARRINGTON RD,IL,60010,AMG BARRINGTON,-88.1353762,42.1346037
GLENVIEW,1412 WAUKEGAN RD,IL,60025,AMG GLENVIEW ON WAUKEGAN,-87.7992692,42.0810107
ORLAND PARK,9550 W 167TH ST,IL,60467,AMG ORLAND PARK,-87.8515398,41.5876466
ORLAND PARK,9550 W 167TH ST (FRONT DOOR DELIVERY),IL,60467,AMG ORLAND PARK PEDIATRICS,-87.8515398,41.5876466
SOUTH HOLLAND,100 W 162ND ST,IL,60473,AMG SOUTH HOLLAND,-87.6205662,41.6016679
PARK RIDGE,1675 DEMPSTER ST,IL,60068,AMG YACKTMAN PEDIATRICS,-87.8463644,42.0389588
LINCOLNWOOD,6400 N KEATING AVE,IL,60712,ANA GAVRILOVICI MD FAMILY MEDICINE,-87.7473763,41.9975724
ARLINGTON HEIGHTS,3325 N ARLINGTON HEIGHTS RD 100A,IL,60004,ARLINGTON PEDIATRICS LTD,-87.9843886,42.1358458
NORTHBROOK,1310 SHERMER RD,IL,60062,ASSOCIATED PEDIATRIC PARTNERS SC,-87.8262302,42.1294561
PALATINE,1760 W ALGONQUIN RD,IL,60067,AUNT MARTHA'S LITTLE CITY MEDICAL,-88.084542,42.0829996
BARTLETT,300 W BARTLETT AVE,IL,60103,BARTLETT PHARMACY,-88.1874064,41.9930571
MAYWOOD,2160 S 1ST AVE CC SURGICAL ONCOLOGY,IL,60153,CARDINAL BERNARDIN CANCER CENTER,-87.8343124,41.8574676
OAK LAWN,4609 W 103RD ST,IL,60453,CENTER FOR INTERNAL MEDICINE,-87.7358452,41.7053271
SCHAUMBURG,1701 W WISE RD,IL,60193,CHILDREN AND TEENS MEDICAL CENTER - SCHAUMBURG,-88.1221985,42.0032479
CHICAGO,5030 N MARINE DR,IL,60640,COKLOW CONSULTING GROUP,-87.6520604,41.9741543
PARK RIDGE,2 W TALCOTT RD,IL,60068,COTTRELL MEDICAL GROUP,-87.8225061,41.9937934
GLENVIEW,2501 COMPASS RD,IL,60026,COVENANT MEDICAL GROUP LLC,-87.81925419999999,42.0981173
BUFFALO GROVE,20 E DUNDEE RD,IL,60089,CVS PHARMACY STORE #2788,-87.9578552,42.1393767
BARTLETT,101 BARTLETT PLAZA,IL,60103,CVS PHARMACY STORE #6701,-88.1839356,41.9879864
BARRINGTON,101 S NORTHWEST HWY,IL,60010,CVS PHARMACY STORE #7181,-88.12799480000001,42.1533959
BUFFALO GROVE,1291 W DUNDEE RD,IL,60089,DAVITA-BUFFALO GROVE DIALYSIS,-87.9868369,42.1377409
WINNETKA,710 OAK ST,IL,60093,DEDICATION HEALTH,-87.7309265,42.1042799
BERWYN,2223 OAK PARK AVE,IL,60402,ELIZABETH BECERRA MD,-87.7930678,41.8497919
HAZEL CREST,3330 W 177TH ST STE 3F,IL,60429,EMERGE MEDSTAFFING,-87.6965295,41.5685786
LYNWOOD,19767 TORRENCE AVE,IL,60411,FAMILY CHRISTIAN HEALTH CENTER - LYNWOOD,-87.5579223,41.5362815
NORTH RIVERSIDE,8711 W CERMAK RD,IL,60546,FGM PEDIATRICS,-87.84081619999999,41.8495133
CICERO,3000 S CICERO AVE,IL,60804,FRESENIUS KIDNEY CARE CICERO,-87.7443936,41.8381728
ELK GROVE VILLAGE,901 BIESTERFIELD RD STE 400,IL,60007,FRESENIUS KIDNEY CARE ELK GROVE,-88.01888129999999,42.0026777
BLUE ISLAND,12200 WESTERN AVE,IL,60406,FKC - BLUE ISLAND,-87.680996,41.6714384
GLENVIEW,4248 COMMERCIAL WAY,IL,60025,FKC - GLENVIEW DIALYSIS CENTER,-87.8600779,42.0697748
HOFFMAN ESTATES,3150 W HIGGINS RD,IL,60169,FRESENIUS KIDNEY CARE HOFFMAN ESTATES,-88.15391629999999,42.0657803
OAK FOREST,5340A W 159TH ST,IL,60452,FRESENIUS KIDNEY CARE OAK FOREST,-87.7507107,41.6044404
HAZEL CREST,17524 E CARRIAGEWAY DR,IL,60429,FKC HAZELCREST,-87.6908545,41.5703543
LEMONT,16177 W ST,IL,60439,FKC LEMONT,-88.01424999999999,41.6563654
MERRIONETTE PARK,11630 S KEDZIE AVE,IL,60803,FKC MERRIONETTE PARK CLINIC,-87.7012883,41.6812233
PALATINE,691 E DUNDEE RD,IL,60074,FKC PALATINE,-88.026755,42.1385865
SCHAUMBURG,815 W WISE RD,IL,60193,FRESENIUS KIDNEY CARE - SCHAUMBURG,-88.10002890000001,42.0040092
CRESTWOOD,4815 MIDLOTHIAN TURNPIKE,IL,60445,FRESENIUS KIDNEY CARE CRESTWOOD,-87.73940689999999,41.6379269
ELK GROVE VILLAGE,901 BIESTERFIELD RD STE 401,IL,60007,FRESENIUS KIDNEY CARE ELK GROVE HOME,-88.0192168,42.0022008
STEGER,219 E ST,IL,60475,FRESENIUS KIDNEY CARE STEGER,-87.6240188,41.4703868
MOUNT PROSPECT,1710 W GOLF RD,IL,60056,FRESENIUS KIDNEY MOUNT PROSPECT,-87.9608172,42.04953709999999
BUFFALO GROVE,770 S BUFFALO GROVE RD,IL,60089,GARDEN FRESH PHARMACY,-87.96035789999999,42.1411336
EVERGREEN PARK,3900 W 95TH ST STE 6,IL,60805,GOPAL MADHAV MD,-87.7197207,41.7206971
MOUNT PROSPECT,1060 S ELMHURST RD,IL,60056,ICC - MT. PROSPECT,-87.9422512,42.0449315
SCHAUMBURG,361 W GOLF RD,IL,60195,ICC - SCHAUMBURG,-88.0886641,42.047826
SCHAUMBURG,1100 E WOODFIELD RD,IL,60173,ILLINOIS CANCER SPECIALISTS,-88.05304160000001,42.0444847
OAK FOREST,5616 159TH ST,IL,60452,"
JEWEL-OSCO PHARMACY STORE #2363",-87.7566128,41.6034981
RIVER FOREST,7525 LAKE ST,IL,60305,JEWEL-OSCO PHARMACY STORE #3223,-87.8133675,41.8878922
DEERFIELD,16 S WAUKEGAN RD,IL,60015,JEWEL-OSCO PHARMACY STORE #3469,-87.8373635,42.1517993
PARK RIDGE,481 BUSSE HWY,IL,60068,"
JEWEL-OSCO PHARMACY STORE #3481",-87.83947289999999,42.0156978
OAK LAWN,4700 W 95TH ST STE 208,IL,60453,JORGE BALANDRIN MD,-87.7380763,41.7203825
HOMEWOOD,18350 KEDZIE AVE,IL,60430,KOMPREHENSIVE PRIMARY CARE SPORTS MEDICINE,-87.6945509,41.5556098
LA GRANGE,1325 MEMORIAL DR,IL,60525,LA GRANGE FAMILY MEDICINE CENTER,-87.8875747,41.7976329
OAK LAWN,4301 W 95TH ST,IL,60453,LAWN MEDICAL CENTER SC,-87.7288099,41.7200633
PARK RIDGE,2604 DEMPSTER ST,IL,60068,LISA KIM MEDICAL ASSOCIATES,-87.8588886,42.0401107
BERWYN,6905 CERMAK RD,IL,60402,LORETTO HOSPITAL PRIMARY CARE,-87.7961219,41.8502965
ELMWOOD PARK,7255 W GRAND AVE,IL,60707,LOYOLA CENTER FOR HEALTH AT ELMWOOD PARK,-87.808728,41.9241981
MELROSE PARK,675 W NORTH AVE STE 416,IL,60160,LOYOLA CENTER FOR HEALTH AT GOTTLIEB,-87.8423469,41.9103077
PARK RIDGE,1030 HIGGINS RD,IL,60068,LOYOLA CENTER FOR HEALTH AT PARK RIDGE,-87.83909799999999,41.987039
HICKORY HILLS,9608 S ROBERTS RD,IL,60457,LOYOLA CENTER FOR HEALTH HICKORY HILLS,-87.8204353,41.7159944
ORLAND PARK,16621 ST,IL,60467,LOYOLA CENTER FOR HEALTH ORLAND PARK,-87.878179,41.588028
LA GRANGE PARK,321 N LA GRANGE RD,IL,60526,LOYOLA FAMILY HEALTH CENTER AT LA GRANGE PARK,-87.8684399,41.8213899
MAYWOOD,1211 W ROOSEVELT RD,IL,60153,LOYOLA FAMILY MEDICINE CLINIC,-87.8476354,41.8648814
BRIDGEVIEW,7020 W 79TH ST,IL,60455,MACNEAL CLINIC / BRIDGEVIEW,-87.7956609,41.7485551
BERWYN,3231 EUCLID AVE,IL,60402,MACNEAL FAMILY PRACTICE CENTER,-87.79116599999999,41.8329361
HINES,1200 S 1ST AVE,IL,60141,MADDEN MENTAL HEALTH,-87.8333971,41.8629626
PALOS HEIGHTS,12050 S HARLEM AVE,IL,60463,MARIA LENTZOU MD,-87.79719759999999,41.6719654
MELROSE PARK,715 W NORTH AVE,IL,60160,MARJORIE WEINBERG CANCER CENTER,-87.84445939999999,41.9113286
BURR RIDGE,901 MCCLINTOCK DR STE 201,IL,60527,METRO INFECTIOUS DIESEASE CONSULTANTS BURR RIDGE,-87.9077227,41.7539269
MELROSE PARK,675 W NORTH AVE,IL,60160,MIDTOWN PHYSICIANS SC,-87.8423372,41.91032329999999
HOFFMAN ESTATES,1721 MOON LAKE BLVD,IL,60169,MIDWEST CENTER FOR WOMEN'S HEALTHCARE- HOFFMAN,-88.1347042,42.0542403
PARK RIDGE,350 S NORTHWEST HWY,IL,60068,MIDWEST CENTER FOR WOMEN'S HEALTHCARE NOGA - PARK RIDGE,-87.8237477,42.0071463
PARK RIDGE,1875 DEMPSTER ST STE 145,IL,60068,MIDWEST CENTER FOR WOMEN'S HEALTHCARE POG - PARK RIDGE,-87.8481968,42.038703
GLENVIEW,3633 W LAKE AVE,IL,60026,MIDWEST CENTER FOR WOMEN'S HLTHCARE,-87.84694909999999,42.08582819999999
ARLINGTON HEIGHTS,3233 N ARLINGTON HEIGHTS RD,IL,60004,MIDWEST CENTER FOR WOMENS HEALTHCARE - ARLINGTON,-87.98073629999999,42.1336227
CICERO,4747 W CERMAK RD,IL,60804,UNIVERSITY OF ILLINOIS MILE SQUARE CICERO,-87.7418457,41.8490905
ROLLING MEADOWS,2121 EUCLID AVE,IL,60008,NDO,-88.0064945,42.0873531
FRANKLIN PARK,3030 CULLERTON ST,IL,60131,NEW ALBERTSONS INC,-87.89317179999999,41.9327801
OAK LAWN,10448 S PULASKI RD,IL,60453,NORA BELLOSA MD,-87.72107129999999,41.7030134
ARLINGTON HEIGHTS,1430 N ARLINGTON HEIGHTS RD,IL,60004,NORTH ARLINGTON PEDIATRICS,-87.9810603,42.1021648
N RIVERSIDE,1950 S HARLEM AVE,IL,60546,LOYOLA MEDICINE NORTH RIVERSIDE,-87.804924,41.8532697
ROLLING MEADOWS,3701 ALGONQUIN RD,IL,60008,NORTHWEST ONCOLOGY AND HEMATOLOGY,-88.025876,42.0613765
OAK FOREST,6320 ST,IL,60452,OAK LAWN PEDIATRICS LTD,-87.77411699999999,41.6026365
ELGIN,820 SUMMIT ST,IL,60120,OAK STREET HEALTH ELGIN,-88.26010699999999,42.047104
OAK LAWN,6700 W 95TH ST,IL,60453,OSF MEDICAL GROUP OAK LAWN,-87.7867873,41.7198921
OAK LAWN,5550 W 111TH ST,IL,60453,OSF MEDICAL GROUP OAK LAWN CENTRAL,-87.7586122,41.6909897
PALOS HEIGHTS,12450 S HARLEM AVE,IL,60463,OSF MEDICAL GROUP PALOS HEIGHTS,-87.7969579,41.6647828
PALOS HEIGHTS,7110 W ST,IL,60463,PALOS PEDIATRICS,-87.7942748,41.661384
PARK RIDGE,1875 DEMPSTER ST STE 650,IL,60068,PARKSIDE PEDIATRICS,-87.8485321,42.0386471
ORLAND PARK,15030 S RAVINIA AVE,IL,60462,PATRICK J ONEAL MD,-87.856408,41.6163133
PALOS HEIGHTS,7270 W COLLEGE DR,IL,60463,PREMIERE GENERAL MEDICINE,-87.7998247,41.675503
PARK RIDGE,205 S NORTHWEST HWY,IL,60068,PRESENCE CENTER FOR HEALTH PARK RIDGE,-87.82551699999999,42.0091703
BERWYN,6840 W WINDSOR AVE,IL,60402,PRIMARY CARE ASSOCIATES,-87.7948158,41.8325015
LANSING,3330 RIDGE RD,IL,60438,QUICK SCRIPTS - LANSING,-87.5357799,41.5649427
CICERO,3701 S LARAMIE AVE,IL,60804,RICF - HAWTHORNE,-87.75339149999999,41.8255917
RIVER FOREST,7411 LAKE ST,IL,60305,RIVER FOREST PHYSICIANS GROUP,-87.8103721,41.888223000000004
HINSDALE,5601 S COUNTY LINE RD,IL,60521,RML SPECIALITY HOSPITAL,-87.91537730000002,41.7861894
ROLLING MEADOWS,3433 KIRCHOFF RD,IL,60008,RUHI ASKARI MD,-88.0234299,42.0789536
CICERO,1611 S CICERO AVE,IL,60804,SINAI MEDICAL GROUP CICERO,-87.7440037,41.8578264
SCHAUMBURG,1102 S ROSELLE RD,IL,60193,SKYPOINT MEDICAL CENTER - MAIN OFFICE,-88.08189709999999,42.0078411
FRANKLIN PARK,10500 SEYMOUR AVE,IL,60131,SLOAN FAMILY HEALTH CENTER,-87.8890316,41.95206839999999
SOUTH HOLLAND,901 E SIBLEY BLVD,IL,60473,SOUTH HOLLAND CHRISTIAN COMMUNITY HEALTH CENTER,-87.5951195,41.6221293
OAK LAWN,10458 S PULASKI RD,IL,60453,"SOUTHWEST MEDICAL CONSULTANTS, S.C.",-87.72107129999999,41.7023911
ORLAND PARK,10755 163RD PL,IL,60467,SUSAN RIFE FAMILY MEDICINE S.C.,-87.8802642,41.5922927
ELMWOOD PARK,1950 N HARLEM AVE,IL,60707,TIESENGA SURGICAL ASSOCIATES - ELMWOOD PARK OFC,-87.806339500000007,41.9160118
FLOSSMOOR,19550 GOVERNORS HWY,IL,60422,UNIVERSITY OF CHICAGO CHILD LIFE CENTER,-87.696553,41.534273
ORLAND PARK,14290 S LA GRANGE RD,IL,60462,UNIVERSITY OF CHICAGO HOSPITALS ORLAND PARK,-87.8545326,41.6308127
BERWYN,6425 CERMAK RD,IL,60402,VANGUARD MEDICAL GROUP - BERWYN,-87.78513339999999,41.8503994
WILMETTE,333 RIDGE RD,IL,60091,WALGREENS PHARMACY STORE #15048,-87.72332229999999,42.0712665
GLENCOE,63 GREEN BAY RD,IL,60022,WALGREENS PHARMACY STORE #1656,-87.7451918,42.1195221
OAK LAWN,6201 W 95TH ST,IL,60453,WALGREENS PHARMACY STORE #3023,-87.7753685,41.7190068
EVERGREEN PARK,3545 W 95TH ST,IL,60805,WALGREENS PHARMACY STORE #3057,-87.7105654,41.7202673
ELMWOOD PARK,1600 N HARLEM AVE,IL,60707,WALGREENS PHARMACY STORE #400,-87.806143,41.90919
MARKHAM,3148 W 159TH ST,IL,60428,WALGREENS PHARMACY STORE #4713,-87.6939346,41.6012878
BUFFALO GROVE,1225 W DUNDEE RD,IL,60089,WALGREEN PHARMACY STORE #5832,-87.9863778,42.1385047
WHEELING,1455 E LAKE COOK RD,IL,60090,WALMART PHARMACY STORE #1735,-87.9527787,42.1523421
ELK GROVE VILLAGE,801 MEACHAM RD,IL,60007,WALMART PHARMACY STORE #1897,-88.043338800000015,42.0018578
WESTCHESTER,2400 WOLF RD,IL,60154,WESTCHESTER DIALYSIS,-87.9021025,41.8442051
MELROSE PARK,911 W NORTH AVE,IL,60160,WSKC NORTH AVENUE DIALYSIS,-87.84665729999999,41.9106933
OAK LAWN,6700 W 95TH ST STE 150,IL,60453,"XPRESS PHARMACY, INC",-87.7867873,41.7198921
MORTON GROVE,5747 DEMPSTER ST,IL,60053,AHMG MORTON GROVE,-87.7705549,42.0405335
BLUE ISLAND,12757 WESTERN AVE,IL,60406,BLUE ISLAND HEALTH CENTER,-87.6796628,41.6609603
CHICAGO,7100 S CICERO AVE,IL,60629,CVS PHARMACY STORE #16285,-87.7434226,41.7631271
RIVER FOREST,7929 NORTH AVE,IL,60305,CVS PHARMACY STORE #3889,-87.8235832,41.9080632
FOREST PARK,7216 CIRCLE AVE,IL,60130,CVS PHARMACY STORE #8736,-87.805917,41.8862774
BROOKFIELD,9139 BROADWAY,IL,60513,CVS PHARMACY STORE #8744,-87.8501411,41.8281526
MORTON GROVE,5945 W DEMPSTER ST,IL,60053,CVS PHARMACY STORE #8752,-87.77598739999999,42.04058819999999
LA GRANGE,1325 COMMUNITY MEMORIAL DRIVE,IL,60525,LAGRANGE FAMILY MEDICINE,-87.8875747,41.7976329
BERWYN,7000 W CERMAK RD,IL,60402,OAK STREET HEALTH BERWYN,-87.79870799999999,41.8507577
PALOS HILLS,10802 S ROBERTS RD,IL,60465,PALOS TOWNSHIP HEALTH SERVICE,-87.8175531,41.6954662
NILES,2019 W IRVING PARK RD,IL,60714,SWEDISH MEDICAL GROUP- NILES PRIMARY CARE SWEDISH,-87.679681,41.9538939
ELMWOOD PARK,7200 W NORTH AVE,IL,60707,WALGREENS PHARMACY STORE #13826,-87.8062593,41.9094854
GLENVIEW,4339 DI PAOLO CTR,IL,60025,WALGREENS PHARMACY STORE #13832,-87.8614204,42.0676183
CHICAGO RIDGE,9830 RIDGELAND AVE,IL,60415,CHICAGO RIDGE MEDICAL CENTER,-87.7804062,41.7129685
